KUIPER-00112            
1 65150U 25171U   26027.85829784  .00009092  00000+0  12203-2 0  9990
2 65150  51.9037 336.1548 0000931  82.0448 278.0620 14.79924373 26870
KUIPER-00114            
1 65151U 25171V   26027.19514773  .00000949  00000+0  15366-3 0  9993
2 65151  51.9006 359.0926 0002526  37.0686 323.0451 14.79894920 26492
KUIPER-00115            
1 65152U 25171W   26027.87856919 -.00004237  00000+0 -52657-3 0  9990
2 65152  51.9016 348.5564 0001990  73.4306 286.6875 14.79975118 26709
KUIPER-00116            
1 65153U 25171X   26027.90699610  .00008423  00000+0  11317-2 0  9994
2 65153  51.9024 353.4702 0005586 330.1487  29.9156 14.79959670 26633
KUIPER-00118            
1 65154U 25171Y   26027.63408118  .00008917  00000+0  11956-2 0  9993
2 65154  51.9015 357.1329 0001295  47.2622 312.8449 14.79987187 26565
KUIPER-00119            
1 65155U 25171Z   26027.84919281  .00006937  00000+0  93429-3 0  9991
2 65155  51.9025 343.7569 0007770 355.1261   4.9625 14.80095744 26766
KUIPER-00120            
1 65762U 25217A   26027.97371953  .00003953  00000+0  59283-3 0  9993
2 65762  51.8975 232.6499 0003388 145.6422 214.4758 14.76479616 18713
KUIPER-00132            
1 65763U 25217B   26027.84069866  .00058386  00000+0  15066-2 0  9997
2 65763  51.8584 201.5974 0007994 182.2566 177.8386 15.38570256 19133
