<?xml version="1.0" encoding="UTF-8"?>
<ndm xmlns:xsi="http://www.w3.org/2001/XMLSchema-instance" xsi:noNamespaceSchemaLocation="https://sanaregistry.org/r/ndmxml_unqualified/ndmxml-2.0.0-master-2.0.xsd">
<omm id="CCSDS_OMM_VERS" version="2.0">
<header><CREATION_DATE/><ORIGINATOR/></header><body><segment><metadata><OBJECT_NAME>KUIPER-00112</OBJECT_NAME><OBJECT_ID>2025-171U</OBJECT_ID><CENTER_NAME>EARTH</CENTER_NAME><REF_FRAME>TEME</REF_FRAME><TIME_SYSTEM>UTC</TIME_SYSTEM><MEAN_ELEMENT_THEORY>SGP4</MEAN_ELEMENT_THEORY></metadata><data><meanElements><EPOCH>2026-01-27T20:35:56.933376</EPOCH><MEAN_MOTION>14.79924373</MEAN_MOTION><ECCENTRICITY>.00009311</ECCENTRICITY><INCLINATION>51.9037</INCLINATION><RA_OF_ASC_NODE>336.1548</RA_OF_ASC_NODE><ARG_OF_PERICENTER>82.0448</ARG_OF_PERICENTER><MEAN_ANOMALY>278.0620</MEAN_ANOMALY></meanElements><tleParameters><EPHEMERIS_TYPE>0</EPHEMERIS_TYPE><CLASSIFICATION_TYPE>U</CLASSIFICATION_TYPE><NORAD_CAT_ID>65150</NORAD_CAT_ID><ELEMENT_SET_NO>999</ELEMENT_SET_NO><REV_AT_EPOCH>2687</REV_AT_EPOCH><BSTAR>.12203169E-2</BSTAR><MEAN_MOTION_DOT>.9092E-4</MEAN_MOTION_DOT><MEAN_MOTION_DDOT>0</MEAN_MOTION_DDOT></tleParameters></data></segment></body></omm>
<omm id="CCSDS_OMM_VERS" version="2.0">
<header><CREATION_DATE/><ORIGINATOR/></header><body><segment><metadata><OBJECT_NAME>KUIPER-00114</OBJECT_NAME><OBJECT_ID>2025-171V</OBJECT_ID><CENTER_NAME>EARTH</CENTER_NAME><REF_FRAME>TEME</REF_FRAME><TIME_SYSTEM>UTC</TIME_SYSTEM><MEAN_ELEMENT_THEORY>SGP4</MEAN_ELEMENT_THEORY></metadata><data><meanElements><EPOCH>2026-01-27T04:41:00.763872</EPOCH><MEAN_MOTION>14.79894920</MEAN_MOTION><ECCENTRICITY>.00025266</ECCENTRICITY><INCLINATION>51.9006</INCLINATION><RA_OF_ASC_NODE>359.0926</RA_OF_ASC_NODE><ARG_OF_PERICENTER>37.0686</ARG_OF_PERICENTER><MEAN_ANOMALY>323.0451</MEAN_ANOMALY></meanElements><tleParameters><EPHEMERIS_TYPE>0</EPHEMERIS_TYPE><CLASSIFICATION_TYPE>U</CLASSIFICATION_TYPE><NORAD_CAT_ID>65151</NORAD_CAT_ID><ELEMENT_SET_NO>999</ELEMENT_SET_NO><REV_AT_EPOCH>2649</REV_AT_EPOCH><BSTAR>.15365957E-3</BSTAR><MEAN_MOTION_DOT>.949E-5</MEAN_MOTION_DOT><MEAN_MOTION_DDOT>0</MEAN_MOTION_DDOT></tleParameters></data></segment></body></omm>
<omm id="CCSDS_OMM_VERS" version="2.0">
<header><CREATION_DATE/><ORIGINATOR/></header><body><segment><metadata><OBJECT_NAME>KUIPER-00115</OBJECT_NAME><OBJECT_ID>2025-171W</OBJECT_ID><CENTER_NAME>EARTH</CENTER_NAME><REF_FRAME>TEME</REF_FRAME><TIME_SYSTEM>UTC</TIME_SYSTEM><MEAN_ELEMENT_THEORY>SGP4</MEAN_ELEMENT_THEORY></metadata><data><meanElements><EPOCH>2026-01-27T21:05:08.378016</EPOCH><MEAN_MOTION>14.79975118</MEAN_MOTION><ECCENTRICITY>.00019906</ECCENTRICITY><INCLINATION>51.9016</INCLINATION><RA_OF_ASC_NODE>348.5564</RA_OF_ASC_NODE><ARG_OF_PERICENTER>73.4306</ARG_OF_PERICENTER><MEAN_ANOMALY>286.6875</MEAN_ANOMALY></meanElements><tleParameters><EPHEMERIS_TYPE>0</EPHEMERIS_TYPE><CLASSIFICATION_TYPE>U</CLASSIFICATION_TYPE><NORAD_CAT_ID>65152</NORAD_CAT_ID><ELEMENT_SET_NO>999</ELEMENT_SET_NO><REV_AT_EPOCH>2670</REV_AT_EPOCH><BSTAR>-.52657018E-3</BSTAR><MEAN_MOTION_DOT>-.4237E-4</MEAN_MOTION_DOT><MEAN_MOTION_DDOT>0</MEAN_MOTION_DDOT></tleParameters></data></segment></body></omm>
<omm id="CCSDS_OMM_VERS" version="2.0">
<header><CREATION_DATE/><ORIGINATOR/></header><body><segment><metadata><OBJECT_NAME>KUIPER-00116</OBJECT_NAME><OBJECT_ID>2025-171X</OBJECT_ID><CENTER_NAME>EARTH</CENTER_NAME><REF_FRAME>TEME</REF_FRAME><TIME_SYSTEM>UTC</TIME_SYSTEM><MEAN_ELEMENT_THEORY>SGP4</MEAN_ELEMENT_THEORY></metadata><data><meanElements><EPOCH>2026-01-27T21:46:04.463040</EPOCH><MEAN_MOTION>14.79959670</MEAN_MOTION><ECCENTRICITY>.00055868</ECCENTRICITY><INCLINATION>51.9024</INCLINATION><RA_OF_ASC_NODE>353.4702</RA_OF_ASC_NODE><ARG_OF_PERICENTER>330.1487</ARG_OF_PERICENTER><MEAN_ANOMALY>29.9156</MEAN_ANOMALY></meanElements><tleParameters><EPHEMERIS_TYPE>0</EPHEMERIS_TYPE><CLASSIFICATION_TYPE>U</CLASSIFICATION_TYPE><NORAD_CAT_ID>65153</NORAD_CAT_ID><ELEMENT_SET_NO>999</ELEMENT_SET_NO><REV_AT_EPOCH>2663</REV_AT_EPOCH><BSTAR>.11316561E-2</BSTAR><MEAN_MOTION_DOT>.8423E-4</MEAN_MOTION_DOT><MEAN_MOTION_DDOT>0</MEAN_MOTION_DDOT></tleParameters></data></segment></body></omm>
<omm id="CCSDS_OMM_VERS" version="2.0">
<header><CREATION_DATE/><ORIGINATOR/></header><body><segment><metadata><OBJECT_NAME>KUIPER-00118</OBJECT_NAME><OBJECT_ID>2025-171Y</OBJECT_ID><CENTER_NAME>EARTH</CENTER_NAME><REF_FRAME>TEME</REF_FRAME><TIME_SYSTEM>UTC</TIME_SYSTEM><MEAN_ELEMENT_THEORY>SGP4</MEAN_ELEMENT_THEORY></metadata><data><meanElements><EPOCH>2026-01-27T15:13:04.613952</EPOCH><MEAN_MOTION>14.79987187</MEAN_MOTION><ECCENTRICITY>.0001295</ECCENTRICITY><INCLINATION>51.9015</INCLINATION><RA_OF_ASC_NODE>357.1329</RA_OF_ASC_NODE><ARG_OF_PERICENTER>47.2622</ARG_OF_PERICENTER><MEAN_ANOMALY>312.8449</MEAN_ANOMALY></meanElements><tleParameters><EPHEMERIS_TYPE>0</EPHEMERIS_TYPE><CLASSIFICATION_TYPE>U</CLASSIFICATION_TYPE><NORAD_CAT_ID>65154</NORAD_CAT_ID><ELEMENT_SET_NO>999</ELEMENT_SET_NO><REV_AT_EPOCH>2656</REV_AT_EPOCH><BSTAR>.11956E-2</BSTAR><MEAN_MOTION_DOT>.8917E-4</MEAN_MOTION_DOT><MEAN_MOTION_DDOT>0</MEAN_MOTION_DDOT></tleParameters></data></segment></body></omm>
<omm id="CCSDS_OMM_VERS" version="2.0">
<header><CREATION_DATE/><ORIGINATOR/></header><body><segment><metadata><OBJECT_NAME>KUIPER-00119</OBJECT_NAME><OBJECT_ID>2025-171Z</OBJECT_ID><CENTER_NAME>EARTH</CENTER_NAME><REF_FRAME>TEME</REF_FRAME><TIME_SYSTEM>UTC</TIME_SYSTEM><MEAN_ELEMENT_THEORY>SGP4</MEAN_ELEMENT_THEORY></metadata><data><meanElements><EPOCH>2026-01-27T20:22:50.258784</EPOCH><MEAN_MOTION>14.80095744</MEAN_MOTION><ECCENTRICITY>.00077701</ECCENTRICITY><INCLINATION>51.9025</INCLINATION><RA_OF_ASC_NODE>343.7569</RA_OF_ASC_NODE><ARG_OF_PERICENTER>355.1261</ARG_OF_PERICENTER><MEAN_ANOMALY>4.9625</MEAN_ANOMALY></meanElements><tleParameters><EPHEMERIS_TYPE>0</EPHEMERIS_TYPE><CLASSIFICATION_TYPE>U</CLASSIFICATION_TYPE><NORAD_CAT_ID>65155</NORAD_CAT_ID><ELEMENT_SET_NO>999</ELEMENT_SET_NO><REV_AT_EPOCH>2676</REV_AT_EPOCH><BSTAR>.93428526E-3</BSTAR><MEAN_MOTION_DOT>.6937E-4</MEAN_MOTION_DOT><MEAN_MOTION_DDOT>0</MEAN_MOTION_DDOT></tleParameters></data></segment></body></omm>
<omm id="CCSDS_OMM_VERS" version="2.0">
<header><CREATION_DATE/><ORIGINATOR/></header><body><segment><metadata><OBJECT_NAME>KUIPER-00120</OBJECT_NAME><OBJECT_ID>2025-217A</OBJECT_ID><CENTER_NAME>EARTH</CENTER_NAME><REF_FRAME>TEME</REF_FRAME><TIME_SYSTEM>UTC</TIME_SYSTEM><MEAN_ELEMENT_THEORY>SGP4</MEAN_ELEMENT_THEORY></metadata><data><meanElements><EPOCH>2026-01-27T23:22:09.367392</EPOCH><MEAN_MOTION>14.76479616</MEAN_MOTION><ECCENTRICITY>.00033885</ECCENTRICITY><INCLINATION>51.8975</INCLINATION><RA_OF_ASC_NODE>232.6499</RA_OF_ASC_NODE><ARG_OF_PERICENTER>145.6422</ARG_OF_PERICENTER><MEAN_ANOMALY>214.4758</MEAN_ANOMALY></meanElements><tleParameters><EPHEMERIS_TYPE>0</EPHEMERIS_TYPE><CLASSIFICATION_TYPE>U</CLASSIFICATION_TYPE><NORAD_CAT_ID>65762</NORAD_CAT_ID><ELEMENT_SET_NO>999</ELEMENT_SET_NO><REV_AT_EPOCH>1871</REV_AT_EPOCH><BSTAR>.59282921E-3</BSTAR><MEAN_MOTION_DOT>.3953E-4</MEAN_MOTION_DOT><MEAN_MOTION_DDOT>0</MEAN_MOTION_DDOT></tleParameters></data></segment></body></omm>
<omm id="CCSDS_OMM_VERS" version="2.0">
<header><CREATION_DATE/><ORIGINATOR/></header><body><segment><metadata><OBJECT_NAME>KUIPER-00132</OBJECT_NAME><OBJECT_ID>2025-217B</OBJECT_ID><CENTER_NAME>EARTH</CENTER_NAME><REF_FRAME>TEME</REF_FRAME><TIME_SYSTEM>UTC</TIME_SYSTEM><MEAN_ELEMENT_THEORY>SGP4</MEAN_ELEMENT_THEORY></metadata><data><meanElements><EPOCH>2026-01-27T20:10:36.364224</EPOCH><MEAN_MOTION>15.38570256</MEAN_MOTION><ECCENTRICITY>.00079944</ECCENTRICITY><INCLINATION>51.8584</INCLINATION><RA_OF_ASC_NODE>201.5974</RA_OF_ASC_NODE><ARG_OF_PERICENTER>182.2566</ARG_OF_PERICENTER><MEAN_ANOMALY>177.8386</MEAN_ANOMALY></meanElements><tleParameters><EPHEMERIS_TYPE>0</EPHEMERIS_TYPE><CLASSIFICATION_TYPE>U</CLASSIFICATION_TYPE><NORAD_CAT_ID>65763</NORAD_CAT_ID><ELEMENT_SET_NO>999</ELEMENT_SET_NO><REV_AT_EPOCH>1913</REV_AT_EPOCH><BSTAR>.15065634E-2</BSTAR><MEAN_MOTION_DOT>.58386E-3</MEAN_MOTION_DOT><MEAN_MOTION_DDOT>0</MEAN_MOTION_DDOT></tleParameters></data></segment></body></omm>

</ndm>
